[{"OBJECT_NAME":"STARLINK-3555","OBJECT_ID":"2022-022M","EPOCH":"2026-03-09T23:18:46.488960","MEAN_MOTION":15.0883657,"ECCENTRICITY":0.00015296,"INCLINATION":53.2181,"RA_OF_ASC_NODE":7.8583,"ARG_OF_PERICENTER":95.1453,"MEAN_ANOMALY":264.9714,"EPHEMERIS_TYPE":0,"CLASSIFICATION_TYPE":"U","NORAD_CAT_ID":51863,"ELEMENT_SET_NO":999,"REV_AT_EPOCH":22315,"BSTAR":-0.00036011537,"MEAN_MOTION_DOT":-6.014e-5,"MEAN_MOTION_DDOT":0},{"OBJECT_NAME":"CZ-3C DEB","OBJECT_ID":"2010-057AL","EPOCH":"2026-03-09T07:47:14.214048","MEAN_MOTION":2.32578391,"ECCENTRICITY":0.71318042,"INCLINATION":20.8136,"RA_OF_ASC_NODE":19.2023,"ARG_OF_PERICENTER":297.2895,"MEAN_ANOMALY":8.9366,"EPHEMERIS_TYPE":0,"CLASSIFICATION_TYPE":"U","NORAD_CAT_ID":40819,"ELEMENT_SET_NO":999,"REV_AT_EPOCH":9437,"BSTAR":0.0031902033,"MEAN_MOTION_DOT":2.07e-6,"MEAN_MOTION_DDOT":0}]
